[ {"name": "STARLINK-35768", "line1": "1 66832U 25280M   26170.76121416  .00003444  00000+0  29618-3 0  9999", "line2": "2 66832  70.0014  77.1643 0002864 267.9999  92.0832 14.98339303 31368"}, {"name": "STARLINK-35858", "line1": "1 66833U 25280N   26170.74451920  .00001648  00000+0  14580-3 0  9990", "line2": "2 66833  70.0013  77.1059 0002603 264.6000  95.4862 14.98344138 31369"}, {"name": "STARLINK-35840", "line1": "1 66834U 25280P   26170.78623191  .00003752  00000+0  32198-3 0  9999", "line2": "2 66834  70.0016  76.8525 0002208 265.3760  94.7147 14.98339006 31376"}, {"name": "STARLINK-35890", "line1": "1 66835U 25280Q   26170.75286800  .00003448  00000+0  29657-3 0  9997", "line2": "2 66835  70.0019  77.1346 0002624 265.0281  95.0579 14.98339221 31363"}, {"name": "STARLINK-35838", "line1": "1 66836U 25280R   26170.80294245  .00003531  00000+0  30369-3 0  9991", "line2": "2 66836  70.0016  76.9081 0002770 269.0274  91.0568 14.98319518 31374"}, {"name": "STARLINK-35729", "line1": "1 66837U 25280S   26170.78224963  .00003229  00000+0  27819-3 0  9999", "line2": "2 66837  70.0017  77.2386 0002364 266.7198  93.3691 14.98337906 31368"}, {"name": "STARLINK-35886", "line1": "1 66838U 25280T   26170.79893521  .00001776  00000+0  15659-3 0  9997", "line2": "2 66838  70.0014  76.8914 0002942 268.2336  91.8486 14.98324862 31374"}, {"name": "STARLINK-35717", "line1": "1 66839U 25280U   26170.74885691  .00004160  00000+0  35619-3 0  9990", "line2": "2 66839  70.0015  77.1186 0002997 268.2811  91.8004 14.98337600 31368"}, {"name": "STARLINK-35837", "line1": "1 66840U 25280V   26170.76555332  .00002012  00000+0  17636-3 0  9993", "line2": "2 66840  70.0017  77.1804 0002286 272.4666  87.6231 14.98339922 31369"}, {"name": "STARLINK-35715", "line1": "1 66841U 25280W   26170.77390265  .00005020  00000+0  42817-3 0  9998", "line2": "2 66841  70.0015  77.2075 0002709 272.9695  87.1154 14.98337244 31360"}, {"name": "STARLINK-35769", "line1": "1 66842U 25280X   26170.79057082  .00001371  00000+0  12264-3 0  9996", "line2": "2 66842  70.0013  76.8625 0002771 270.0509  90.0333 14.98334508 31370"}, {"name": "STARLINK-35997", "line1": "1 66843U 25280Y   26170.74051075  .00003069  00000+0  26480-3 0  9999", "line2": "2 66843  70.0013  77.0876 0002568 271.6073  88.4792 14.98340534 31364"}, {"name": "STARLINK-36073", "line1": "1 66844U 25280Z   26170.75720554  .00005936  00000+0  50482-3 0  9990", "line2": "2 66844  70.0012  77.1497 0003114 269.6056  90.4746 14.98335193 31334"}, {"name": "STARLINK-36068", "line1": "1 66845U 25280AA  26170.79474371  .00004138  00000+0  35429-3 0  9995", "line2": "2 66845  70.0015  76.8760 0002875 267.9897  92.0933 14.98340049 31370"}, {"name": "STARLINK-36055", "line1": "1 66846U 25280AB  26170.76972933  .00003732  00000+0  32031-3 0  9995", "line2": "2 66846  70.0011  77.1951 0002847 270.5905  89.4928 14.98338251 31378"}, {"name": "STARLINK-36061", "line1": "1 66847U 25280AC  26170.77807537  .00003766  00000+0  32313-3 0  9994", "line2": "2 66847  70.0014  77.2218 0002610 270.8442  89.2418 14.98339675 31368"}, {"name": "STARLINK-36091", "line1": "1 66848U 25281A   26170.57481955  .00011653  00000+0  43212-3 0  9990", "line2": "2 66848  42.9993 128.4199 0000908 268.7963  91.2784 15.27595511 30445"}, {"name": "STARLINK-36102", "line1": "1 66849U 25281B   26170.23761208  .00011433  00000+0  42424-3 0  9996", "line2": "2 66849  42.9993 130.1851 0001426 270.7074  89.3615 15.27589370 31711"}, {"name": "STARLINK-36105", "line1": "1 66850U 25281C   26170.88762221  .00000099  00000+0  13112-4 0  9994", "line2": "2 66850  42.9988 126.4656 0001035 276.0407  84.0326 15.27570232 31812"}, {"name": "STARLINK-36094", "line1": "1 66851U 25281D   26170.28114785  .00014576  00000+0  53803-3 0  9990", "line2": "2 66851  43.0063 129.6458 0002670 249.9124 110.1441 15.27587485 31722"}, {"name": "STARLINK-35992", "line1": "1 66852U 25281E   26170.93115678  .00008812  00000+0  32924-3 0  9992", "line2": "2 66852  43.0025 125.9295 0001725 271.9312  88.1342 15.27591318 31828"}, {"name": "STARLINK-35986", "line1": "1 66853U 25281F   26170.92732676  .00021151  00000+0  77572-3 0  9994", "line2": "2 66853  43.0018 125.9050 0001015 290.4828  69.5914 15.27589629 31820"}, {"name": "STARLINK-36087", "line1": "1 66854U 25281G   26170.59651991  .00009713  00000+0  36184-3 0  9992", "line2": "2 66854  43.0040 127.7189 0002370 262.2984  97.7599 15.27597338 31776"}, {"name": "STARLINK-36090", "line1": "1 66855U 25281H   26170.91316825  .00007422  00000+0  27878-3 0  9998", "line2": "2 66855  42.9977 125.7892 0000486 268.0230  92.0566 15.27598473 31826"}, {"name": "STARLINK-36072", "line1": "1 66856U 25281J   26170.57867050  .00007877  00000+0  29536-3 0  9999", "line2": "2 66856  43.0014 128.4469 0000747 271.6849  88.3917 15.27592342 31767"}, {"name": "STARLINK-36083", "line1": "1 66857U 25281K   26170.57096646  .00011833  00000+0  43870-3 0  9999", "line2": "2 66857  42.9987 128.3874 0001559 273.5743  86.4930 15.27590053 31761"}, {"name": "STARLINK-35118", "line1": "1 66858U 25281L   26170.29527594  .00012492  00000+0  46249-3 0  9995", "line2": "2 66858  43.0028 129.7574 0002273 268.8230  91.2361 15.27594921 31720"}, {"name": "STARLINK-35646", "line1": "1 66859U 25281M   26170.35682005  .00006851  00000+0  25825-3 0  9991", "line2": "2 66859  43.0014 129.3581 0001332 278.8961  81.1740 15.27581088 31737"}, {"name": "STARLINK-35987", "line1": "1 66860U 25281N   26170.92860530  .00012808  00000+0  47393-3 0  9990", "line2": "2 66860  43.0023 125.9091 0001316 278.9758  81.0945 15.27596175 31823"}, {"name": "STARLINK-35991", "line1": "1 66861U 25281P   26170.91961670  .00033565  00000+0  12226-2 0  9996", "line2": "2 66861  43.0003 125.8453 0001096 273.2401  86.8326 15.27610203 31826"}, {"name": "STARLINK-35974", "line1": "1 66862U 25281Q   26170.22219148  .00015674  00000+0  57770-3 0  9992", "line2": "2 66862  43.0027 130.0671 0001629 269.5281  90.5384 15.27591474 31711"}, {"name": "STARLINK-36134", "line1": "1 66863U 25281R   26170.58238253  .00009952  00000+0  37056-3 0  9997", "line2": "2 66863  43.0008 127.6029 0001293 266.4069  93.6635 15.27589287 31775"}, {"name": "STARLINK-36070", "line1": "1 66864U 25281S   26170.24146503  .00018350  00000+0  67435-3 0  9993", "line2": "2 66864  43.0006 130.2126 0001381 266.3939  93.6754 15.27596424 31712"}, {"name": "STARLINK-36117", "line1": "1 66865U 25281T   26170.91704497  .00019014  00000+0  69890-3 0  9995", "line2": "2 66865  43.0045 125.8202 0001530 273.0953  86.9723 15.27570705 31825"}, {"name": "STARLINK-36126", "line1": "1 66866U 25281U   26170.57995955  .00010025  00000+0  37321-3 0  9996", "line2": "2 66866  43.0014 128.4549 0001109 275.5511  84.5214 15.27589054 31752"}, {"name": "STARLINK-36101", "line1": "1 66867U 25281V   26170.57610713  .00009854  00000+0  36709-3 0  9990", "line2": "2 66867  42.9996 128.4248 0001172 273.8740  86.1978 15.27583915 31756"}, {"name": "STARLINK-36108", "line1": "1 66868U 25281W   26170.57226943  .00012832  00000+0  47477-3 0  9993", "line2": "2 66868  43.0008 128.3940 0000909 244.5675 115.5082 15.27597181 31753"}, {"name": "STARLINK-36092", "line1": "1 66869U 25281X   26170.30428248  .00011959  00000+0  44353-3 0  9996", "line2": "2 66869  43.0009 129.8227 0000729 224.8132 135.2661 15.27569990 31713"}, {"name": "STARLINK-36114", "line1": "1 66870U 25281Y   26170.23503885  .00018404  00000+0  67598-3 0  9999", "line2": "2 66870  43.0015 130.1612 0001843 267.8021  92.2620 15.27612772 31700"}, {"name": "STARLINK-36095", "line1": "1 66871U 25281Z   26170.23118367  .00026278  00000+0  96095-3 0  9999", "line2": "2 66871  43.0009 130.1342 0001511 278.8657  81.2023 15.27583540 31696"}, {"name": "STARLINK-36082", "line1": "1 66872U 25281AA  26170.29272749  .00017159  00000+0  63097-3 0  9995", "line2": "2 66872  43.0021 129.7335 0001902 272.4025  87.6609 15.27612453 31719"}, {"name": "STARLINK-36128", "line1": "1 66873U 25281AB  26170.60936531  .00009375  00000+0  34962-3 0  9997", "line2": "2 66873  43.0046 127.8055 0001489 269.8714  90.1967 15.27592582 31716"}, {"name": "STARLINK-36129", "line1": "1 66874U 25281AC  26170.22347508  .00019991  00000+0  73369-3 0  9995", "line2": "2 66874  43.0030 130.0721 0001563 264.3021  95.7653 15.27594405 31708"}, {"name": "STARLINK-36053", "line1": "1 66875U 25281AD  26170.93244408  .00018992  00000+0  69775-3 0  9995", "line2": "2 66875  43.0036 125.9332 0001484 258.7020 101.3665 15.27586314 31767"}, {"name": "STARLINK-35702", "line1": "1 66876U 25281AE  26170.61193655  .00013209  00000+0  48850-3 0  9995", "line2": "2 66876  43.0025 127.8276 0000999 283.1930  76.8810 15.27591809 31769"}, {"name": "STARLINK-35866", "line1": "1 66878U 25283A   26170.69853112  .00018838  00000+0  64571-3 0  9999", "line2": "2 66878  53.1575 270.2442 0001026  80.8774 279.2343 15.30242597 31469"}, {"name": "STARLINK-35749", "line1": "1 66879U 25283B   26170.75223235  .00019638  00000+0  67322-3 0  9990", "line2": "2 66879  53.1589 269.8681 0001317  87.0940 273.0211 15.30209136 31470"}, {"name": "STARLINK-35844", "line1": "1 66880U 25283C   26170.56156655  .00033322  00000+0  11320-2 0  9994", "line2": "2 66880  53.1589 270.8113 0001236  80.7230 279.3911 15.30204090 31443"}, {"name": "STARLINK-35860", "line1": "1 66881U 25283D   26170.54996059  .00015190  00000+0  52387-3 0  9995", "line2": "2 66881  53.1599 270.7331 0001412  97.1399 262.9762 15.30204667 31442"}, {"name": "STARLINK-35912", "line1": "1 66882U 25283E   26170.66822102  .00027042  00000+0  80827-3 0  9995", "line2": "2 66882  53.1576 269.3511 0001559  98.3780 261.7399 15.34412373 31476"}, {"name": "STARLINK-35947", "line1": "1 66883U 25283F   26170.54636818  .00012635  00000+0  38443-3 0  9999", "line2": "2 66883  53.1593 270.0137 0001184  88.6596 271.4543 15.34402743 31479"}, {"name": "STARLINK-36057", "line1": "1 66884U 25283G   26170.57792722  .00018770  00000+0  56540-3 0  9994", "line2": "2 66884  53.1598 270.2093 0001275 101.1806 258.9340 15.34392124 31458"}]